{
  "type": "FeatureCollection",
  "features": [
    {
      "type": "Feature",
      "properties": {
        "norad_id": 37530,
        "name": "COSMOS 2251 DEB",
        "group": "cosmos-2251-debris",
        "lat": -69.98239488667123,
        "lon": -80.88973689662862,
        "alt_km": 789.9330726416765,
        "timestamp": "2025-12-14T05:42:18.860676+00:00",
        "meta_object_name": "COSMOS 2251 DEB",
        "meta_object_id": "1993-036BNK",
        "meta_epoch": "2025-12-13T05:02:01.167072",
        "meta_mean_motion": 14.34504437,
        "meta_eccentricity": 0.00258213,
        "meta_inclination": 74.0355,
        "meta_ra_of_asc_node": 332.7814,
        "meta_arg_of_pericenter": 34.4483,
        "meta_mean_anomaly": 341.4849,
        "meta_ephemeris_type": 0,
        "meta_classification_type": "U",
        "meta_norad_cat_id": 37530,
        "meta_element_set_no": 999,
        "meta_rev_at_epoch": 85239,
        "meta_bstar": 0.00034742606,
        "meta_mean_motion_dot": 9.57e-06,
        "meta_mean_motion_ddot": 0,
        "tle_line1": "1 37530U 93036BNK 25347.20973573  .00000957  00000+0  34743-3 0  9990",
        "tle_line2": "2 37530  74.0355 332.7814 0025821  34.4483 341.4849 14.34504437852391"
      },
      "geometry": {
        "type": "Point",
        "coordinates": [
          -80.88973689662862,
          -69.98239488667123
        ]
      }
    },
    {
      "type": "Feature",
      "properties": {
        "norad_id": 37532,
        "name": "COSMOS 2251 DEB",
        "group": "cosmos-2251-debris",
        "lat": 67.95918303044901,
        "lon": -11.998935024704434,
        "alt_km": 753.6409735967854,
        "timestamp": "2025-12-14T05:42:18.860687+00:00",
        "meta_object_name": "COSMOS 2251 DEB",
        "meta_object_id": "1993-036BNM",
        "meta_epoch": "2025-12-12T21:39:46.748160",
        "meta_mean_motion": 14.4240789,
        "meta_eccentricity": 0.00159727,
        "meta_inclination": 74.0496,
        "meta_ra_of_asc_node": 215.4183,
        "meta_arg_of_pericenter": 316.0746,
        "meta_mean_anomaly": 59.3162,
        "meta_ephemeris_type": 0,
        "meta_classification_type": "U",
        "meta_norad_cat_id": 37532,
        "meta_element_set_no": 999,
        "meta_rev_at_epoch": 84918,
        "meta_bstar": 0.00031840212,
        "meta_mean_motion_dot": 1.028e-05,
        "meta_mean_motion_ddot": 0,
        "tle_line1": "1 37532U 93036BNM 25346.90262440  .00001028  00000+0  31840-3 0  9997",
        "tle_line2": "2 37532  74.0496 215.4183 0015972 316.0746  59.3162 14.42407890849182"
      },
      "geometry": {
        "type": "Point",
        "coordinates": [
          -11.998935024704434,
          67.95918303044901
        ]
      }
    },
    {
      "type": "Feature",
      "properties": {
        "norad_id": 37533,
        "name": "COSMOS 2251 DEB",
        "group": "cosmos-2251-debris",
        "lat": 33.50800059504087,
        "lon": -159.93329588517756,
        "alt_km": 947.6381043405609,
        "timestamp": "2025-12-14T05:42:18.860697+00:00",
        "meta_object_name": "COSMOS 2251 DEB",
        "meta_object_id": "1993-036BNN",
        "meta_epoch": "2025-12-10T19:55:37.417152",
        "meta_mean_motion": 14.12152288,
        "meta_eccentricity": 0.01580439,
        "meta_inclination": 74.0697,
        "meta_ra_of_asc_node": 195.1706,
        "meta_arg_of_pericenter": 252.2523,
        "meta_mean_anomaly": 106.1316,
        "meta_ephemeris_type": 0,
        "meta_classification_type": "U",
        "meta_norad_cat_id": 37533,
        "meta_element_set_no": 999,
        "meta_rev_at_epoch": 62894,
        "meta_bstar": 0.0019185157,
        "meta_mean_motion_dot": 3.939e-05,
        "meta_mean_motion_ddot": 0,
        "tle_line1": "1 37533U 93036BNN 25344.83029418  .00003939  00000+0  19185-2 0  9994",
        "tle_line2": "2 37533  74.0697 195.1706 0158043 252.2523 106.1316 14.12152288628948"
      },
      "geometry": {
        "type": "Point",
        "coordinates": [
          -159.93329588517756,
          33.50800059504087
        ]
      }
    },
    {
      "type": "Feature",
      "properties": {
        "norad_id": 37535,
        "name": "COSMOS 2251 DEB",
        "group": "cosmos-2251-debris",
        "lat": -24.559987540513482,
        "lon": -101.8304826650728,
        "alt_km": 683.7139375417937,
        "timestamp": "2025-12-14T05:42:18.860719+00:00",
        "meta_object_name": "COSMOS 2251 DEB",
        "meta_object_id": "1993-036BNQ",
        "meta_epoch": "2025-12-13T12:23:58.438176",
        "meta_mean_motion": 14.58468554,
        "meta_eccentricity": 0.00277454,
        "meta_inclination": 74.024,
        "meta_ra_of_asc_node": 72.0198,
        "meta_arg_of_pericenter": 210.8544,
        "meta_mean_anomaly": 170.2496,
        "meta_ephemeris_type": 0,
        "meta_classification_type": "U",
        "meta_norad_cat_id": 37535,
        "meta_element_set_no": 999,
        "meta_rev_at_epoch": 85336,
        "meta_bstar": 0.0012794491,
        "meta_mean_motion_dot": 5.945e-05,
        "meta_mean_motion_ddot": 0,
        "tle_line1": "1 37535U 93036BNQ 25347.51664859  .00005945  00000+0  12794-2 0  9996",
        "tle_line2": "2 37535  74.0240  72.0198 0027745 210.8544 170.2496 14.58468554853362"
      },
      "geometry": {
        "type": "Point",
        "coordinates": [
          -101.8304826650728,
          -24.559987540513482
        ]
      }
    },
    {
      "type": "Feature",
      "properties": {
        "norad_id": 37537,
        "name": "COSMOS 2251 DEB",
        "group": "cosmos-2251-debris",
        "lat": -69.5654324736263,
        "lon": -147.94128683619323,
        "alt_km": 791.1575926050728,
        "timestamp": "2025-12-14T05:42:18.860731+00:00",
        "meta_object_name": "COSMOS 2251 DEB",
        "meta_object_id": "1993-036BNS",
        "meta_epoch": "2025-12-11T11:15:11.696832",
        "meta_mean_motion": 14.37489039,
        "meta_eccentricity": 0.00502138,
        "meta_inclination": 74.0122,
        "meta_ra_of_asc_node": 267.468,
        "meta_arg_of_pericenter": 48.0201,
        "meta_mean_anomaly": 312.5213,
        "meta_ephemeris_type": 0,
        "meta_classification_type": "U",
        "meta_norad_cat_id": 37537,
        "meta_element_set_no": 999,
        "meta_rev_at_epoch": 85015,
        "meta_bstar": 0.0003879169,
        "meta_mean_motion_dot": 1.152e-05,
        "meta_mean_motion_ddot": 0,
        "tle_line1": "1 37537U 93036BNS 25345.46888538  .00001152  00000+0  38792-3 0  9995",
        "tle_line2": "2 37537  74.0122 267.4680 0050213  48.0201 312.5213 14.37489039850156"
      },
      "geometry": {
        "type": "Point",
        "coordinates": [
          -147.94128683619323,
          -69.5654324736263
        ]
      }
    },
    {
      "type": "Feature",
      "properties": {
        "norad_id": 37546,
        "name": "COSMOS 2251 DEB",
        "group": "cosmos-2251-debris",
        "lat": -51.13803606429028,
        "lon": -64.11964930028445,
        "alt_km": 636.4266956971451,
        "timestamp": "2025-12-14T05:42:18.860741+00:00",
        "meta_object_name": "COSMOS 2251 DEB",
        "meta_object_id": "1993-036BPB",
        "meta_epoch": "2025-12-12T07:14:41.883360",
        "meta_mean_motion": 14.80502899,
        "meta_eccentricity": 0.00057425,
        "meta_inclination": 74.0201,
        "meta_ra_of_asc_node": 98.8674,
        "meta_arg_of_pericenter": 110.1811,
        "meta_mean_anomaly": 249.9983,
        "meta_ephemeris_type": 0,
        "meta_classification_type": "U",
        "meta_norad_cat_id": 37546,
        "meta_element_set_no": 999,
        "meta_rev_at_epoch": 65881,
        "meta_bstar": 0.0040733995,
        "meta_mean_motion_dot": 0.00031311,
        "meta_mean_motion_ddot": 0,
        "tle_line1": "1 37546U 93036BPB 25346.30187365  .00031311  00000+0  40734-2 0  9997",
        "tle_line2": "2 37546  74.0201  98.8674 0005742 110.1811 249.9983 14.80502899658812"
      },
      "geometry": {
        "type": "Point",
        "coordinates": [
          -64.11964930028445,
          -51.13803606429028
        ]
      }
    },
    {
      "type": "Feature",
      "properties": {
        "norad_id": 37959,
        "name": "COSMOS 2251 DEB",
        "group": "cosmos-2251-debris",
        "lat": -49.457341993161734,
        "lon": 34.50507875392125,
        "alt_km": 720.3624528548235,
        "timestamp": "2025-12-14T05:42:18.860751+00:00",
        "meta_object_name": "COSMOS 2251 DEB",
        "meta_object_id": "1993-036BPJ",
        "meta_epoch": "2025-12-12T21:34:00.178752",
        "meta_mean_motion": 14.58148187,
        "meta_eccentricity": 0.00578327,
        "meta_inclination": 74.0111,
        "meta_ra_of_asc_node": 56.6408,
        "meta_arg_of_pericenter": 199.3367,
        "meta_mean_anomaly": 281.3245,
        "meta_ephemeris_type": 0,
        "meta_classification_type": "U",
        "meta_norad_cat_id": 37959,
        "meta_element_set_no": 999,
        "meta_rev_at_epoch": 80129,
        "meta_bstar": 0.0010632264,
        "meta_mean_motion_dot": 4.988e-05,
        "meta_mean_motion_ddot": 0,
        "tle_line1": "1 37959U 93036BPJ 25346.89861318  .00004988  00000+0  10632-2 0  9990",
        "tle_line2": "2 37959  74.0111  56.6408 0057832 199.3367 281.3245 14.58148187801293"
      },
      "geometry": {
        "type": "Point",
        "coordinates": [
          34.50507875392125,
          -49.457341993161734
        ]
      }
    }
  ]
}